{
  "type": "FeatureCollection",
  "features": [
    {
      "type": "Feature",
      "properties": {
        "norad_id": 40236,
        "name": "COSMOS 2251 DEB",
        "group": "cosmos-2251-debris",
        "lat": 39.95907983019285,
        "lon": -47.64108820529119,
        "alt_km": 1287.3740031688712,
        "timestamp": "2025-12-10T20:49:52.950980+00:00",
        "meta_object_name": "COSMOS 2251 DEB",
        "meta_object_id": "1993-036BVR",
        "meta_epoch": "2025-12-07T17:52:23.026080",
        "meta_mean_motion": 13.24639967,
        "meta_eccentricity": 0.05366128,
        "meta_inclination": 73.5349,
        "meta_ra_of_asc_node": 151.6266,
        "meta_arg_of_pericenter": 32.3576,
        "meta_mean_anomaly": 330.9258,
        "meta_ephemeris_type": 0,
        "meta_classification_type": "U",
        "meta_norad_cat_id": 40236,
        "meta_element_set_no": 999,
        "meta_rev_at_epoch": 53558,
        "meta_bstar": 0.0015786255,
        "meta_mean_motion_dot": 1.455e-05,
        "meta_mean_motion_ddot": 0,
        "tle_line1": "1 40236U 93036BVR 25341.74471095  .00001455  00000+0  15786-2 0  9991",
        "tle_line2": "2 40236  73.5349 151.6266 0536612  32.3576 330.9258 13.24639967535580"
      },
      "geometry": {
        "type": "Point",
        "coordinates": [
          -47.64108820529119,
          39.95907983019285
        ]
      }
    },
    {
      "type": "Feature",
      "properties": {
        "norad_id": 40238,
        "name": "COSMOS 2251 DEB",
        "group": "cosmos-2251-debris",
        "lat": -41.64847830340188,
        "lon": -98.73221991973095,
        "alt_km": 1584.3050559293597,
        "timestamp": "2025-12-10T20:49:52.950990+00:00",
        "meta_object_name": "COSMOS 2251 DEB",
        "meta_object_id": "1993-036BVT",
        "meta_epoch": "2025-12-09T21:58:52.795776",
        "meta_mean_motion": 13.25105207,
        "meta_eccentricity": 0.05495016,
        "meta_inclination": 73.9881,
        "meta_ra_of_asc_node": 67.934,
        "meta_arg_of_pericenter": 40.3773,
        "meta_mean_anomaly": 323.6787,
        "meta_ephemeris_type": 0,
        "meta_classification_type": "U",
        "meta_norad_cat_id": 40238,
        "meta_element_set_no": 999,
        "meta_rev_at_epoch": 53999,
        "meta_bstar": 0.0016484938,
        "meta_mean_motion_dot": 1.598e-05,
        "meta_mean_motion_ddot": 0,
        "tle_line1": "1 40238U 93036BVT 25343.91588884  .00001598  00000+0  16485-2 0  9994",
        "tle_line2": "2 40238  73.9881  67.9340 0549501  40.3773 323.6787 13.25105207539999"
      },
      "geometry": {
        "type": "Point",
        "coordinates": [
          -98.73221991973095,
          -41.64847830340188
        ]
      }
    },
    {
      "type": "Feature",
      "properties": {
        "norad_id": 40239,
        "name": "COSMOS 2251 DEB",
        "group": "cosmos-2251-debris",
        "lat": -10.96403546264982,
        "lon": 102.59936135413608,
        "alt_km": 746.9640380532765,
        "timestamp": "2025-12-10T20:49:52.950999+00:00",
        "meta_object_name": "COSMOS 2251 DEB",
        "meta_object_id": "1993-036BVU",
        "meta_epoch": "2025-12-10T14:12:54.993888",
        "meta_mean_motion": 14.6197936,
        "meta_eccentricity": 0.00847577,
        "meta_inclination": 74.0316,
        "meta_ra_of_asc_node": 279.9471,
        "meta_arg_of_pericenter": 31.8637,
        "meta_mean_anomaly": 148.8031,
        "meta_ephemeris_type": 0,
        "meta_classification_type": "U",
        "meta_norad_cat_id": 40239,
        "meta_element_set_no": 999,
        "meta_rev_at_epoch": 59579,
        "meta_bstar": 0.00074088681,
        "meta_mean_motion_dot": 3.879e-05,
        "meta_mean_motion_ddot": 0,
        "tle_line1": "1 40239U 93036BVU 25344.59230317  .00003879  00000+0  74089-3 0  9994",
        "tle_line2": "2 40239  74.0316 279.9471 0084757  31.8637 148.8031 14.61979360595795"
      },
      "geometry": {
        "type": "Point",
        "coordinates": [
          102.59936135413608,
          -10.96403546264982
        ]
      }
    },
    {
      "type": "Feature",
      "properties": {
        "norad_id": 40792,
        "name": "COSMOS 2251 DEB",
        "group": "cosmos-2251-debris",
        "lat": -40.677172533932506,
        "lon": 36.84186073852417,
        "alt_km": 685.604077345859,
        "timestamp": "2025-12-10T20:49:52.951009+00:00",
        "meta_object_name": "COSMOS 2251 DEB",
        "meta_object_id": "1993-036BVV",
        "meta_epoch": "2025-12-08T11:49:11.388288",
        "meta_mean_motion": 14.67495133,
        "meta_eccentricity": 0.00157828,
        "meta_inclination": 74.0463,
        "meta_ra_of_asc_node": 55.6567,
        "meta_arg_of_pericenter": 162.447,
        "meta_mean_anomaly": 210.2984,
        "meta_ephemeris_type": 0,
        "meta_classification_type": "U",
        "meta_norad_cat_id": 40792,
        "meta_element_set_no": 999,
        "meta_rev_at_epoch": 63122,
        "meta_bstar": 0.0015277322,
        "meta_mean_motion_dot": 8.654e-05,
        "meta_mean_motion_ddot": 0,
        "tle_line1": "1 40792U 93036BVV 25342.49249292  .00008654  00000+0  15277-2 0  9996",
        "tle_line2": "2 40792  74.0463  55.6567 0015782 162.4470 210.2984 14.67495133631222"
      },
      "geometry": {
        "type": "Point",
        "coordinates": [
          36.84186073852417,
          -40.677172533932506
        ]
      }
    },
    {
      "type": "Feature",
      "properties": {
        "norad_id": 40793,
        "name": "COSMOS 2251 DEB",
        "group": "cosmos-2251-debris",
        "lat": -28.699435869157888,
        "lon": 159.35899345507178,
        "alt_km": 724.2868948778432,
        "timestamp": "2025-12-10T20:49:52.951019+00:00",
        "meta_object_name": "COSMOS 2251 DEB",
        "meta_object_id": "1993-036BVW",
        "meta_epoch": "2025-11-17T22:59:08.433600",
        "meta_mean_motion": 14.0559149,
        "meta_eccentricity": 0.02150611,
        "meta_inclination": 73.9793,
        "meta_ra_of_asc_node": 208.5839,
        "meta_arg_of_pericenter": 10.058,
        "meta_mean_anomaly": 350.4754,
        "meta_ephemeris_type": 0,
        "meta_classification_type": "U",
        "meta_norad_cat_id": 40793,
        "meta_element_set_no": 999,
        "meta_rev_at_epoch": 67897,
        "meta_bstar": 0.0015211732,
        "meta_mean_motion_dot": 3.024e-05,
        "meta_mean_motion_ddot": 0,
        "tle_line1": "1 40793U 93036BVW 25321.95773650  .00003024  00000+0  15212-2 0  9990",
        "tle_line2": "2 40793  73.9793 208.5839 0215061  10.0580 350.4754 14.05591490678970"
      },
      "geometry": {
        "type": "Point",
        "coordinates": [
          159.35899345507178,
          -28.699435869157888
        ]
      }
    },
    {
      "type": "Feature",
      "properties": {
        "norad_id": 40794,
        "name": "COSMOS 2251 DEB",
        "group": "cosmos-2251-debris",
        "lat": 2.746753893991247,
        "lon": -52.76201339654747,
        "alt_km": 589.8814432431045,
        "timestamp": "2025-12-10T20:49:52.951029+00:00",
        "meta_object_name": "COSMOS 2251 DEB",
        "meta_object_id": "1993-036BVX",
        "meta_epoch": "2025-11-30T04:39:36.279360",
        "meta_mean_motion": 14.91253423,
        "meta_eccentricity": 0.00103638,
        "meta_inclination": 73.9758,
        "meta_ra_of_asc_node": 149.5129,
        "meta_arg_of_pericenter": 264.0956,
        "meta_mean_anomaly": 215.1976,
        "meta_ephemeris_type": 0,
        "meta_classification_type": "U",
        "meta_norad_cat_id": 40794,
        "meta_element_set_no": 999,
        "meta_rev_at_epoch": 61737,
        "meta_bstar": 0.0047311798,
        "meta_mean_motion_dot": 0.00047418,
        "meta_mean_motion_ddot": 0,
        "tle_line1": "1 40794U 93036BVX 25334.19416990  .00047418  00000+0  47312-2 0  9993",
        "tle_line2": "2 40794  73.9758 149.5129 0010363 264.0956 215.1976 14.91253423617370"
      },
      "geometry": {
        "type": "Point",
        "coordinates": [
          -52.76201339654747,
          2.746753893991247
        ]
      }
    },
    {
      "type": "Feature",
      "properties": {
        "norad_id": 40796,
        "name": "COSMOS 2251 DEB",
        "group": "cosmos-2251-debris",
        "lat": -55.95180294996828,
        "lon": 120.78559410145992,
        "alt_km": 593.4116594857942,
        "timestamp": "2025-12-10T20:49:52.951039+00:00",
        "meta_object_name": "COSMOS 2251 DEB",
        "meta_object_id": "1993-036BVZ",
        "meta_epoch": "2025-12-10T03:48:45.254304",
        "meta_mean_motion": 14.81637417,
        "meta_eccentricity": 0.00560692,
        "meta_inclination": 74.0121,
        "meta_ra_of_asc_node": 147.2935,
        "meta_arg_of_pericenter": 284.3581,
        "meta_mean_anomaly": 195.1854,
        "meta_ephemeris_type": 0,
        "meta_classification_type": "U",
        "meta_norad_cat_id": 40796,
        "meta_element_set_no": 999,
        "meta_rev_at_epoch": 76120,
        "meta_bstar": 0.0012879696,
        "meta_mean_motion_dot": 0.0001039,
        "meta_mean_motion_ddot": 0,
        "tle_line1": "1 40796U 93036BVZ 25344.15885711  .00010390  00000+0  12880-2 0  9994",
        "tle_line2": "2 40796  74.0121 147.2935 0056069 284.3581 195.1854 14.81637417761202"
      },
      "geometry": {
        "type": "Point",
        "coordinates": [
          120.78559410145992,
          -55.95180294996828
        ]
      }
    }
  ]
}